GLOBALSTAR M094         
1 39074U 13005C   24141.42408237 -.00000091  00000+0  70750-4 0  9997
2 39074  51.9965 297.9651 0001027 115.0321 245.0652 12.62266106522771
GLOBALSTAR M096         
1 39075U 13005D   24140.96210089 -.00000071  00000+0  18157-3 0  9992
2 39075  52.0093 347.5790 0001194  96.0260 264.0743 12.62265866521635
GLOBALSTAR M078         
1 39076U 13005E   24141.09455376 -.00000108  00000+0 -23440-4 0  9992
2 39076  51.9883  72.2209 0001475  43.2420 316.8562 12.62274832520279
GLOBALSTAR M095         
1 39077U 13005F   24141.12018434 -.00000100  00000+0  23539-4 0  9997
2 39077  51.9811  69.5296 0001252  63.8918 296.2077 12.62266252520133
GLOBALSTAR M087         
1 52888U 22064A   24141.61079916 -.00000070  00000+0  11166-3 0  9991
2 52888  51.9763 304.5389 0008608 295.6682  64.3329 13.37574377 93833
